{"type":"FeatureCollection","note":"Extract of OpenStreetMap data for Bondi Golf Course. © OpenStreetMap contributors, ODbL 1.0.","features":[{"type":"Feature","properties":{"@id":"node/8841955533","natural":"tree"},"geometry":{"type":"Point","coordinates":[151.2849641,-33.8874117]}},{"type":"Feature","properties":{"@id":"node/8841955534","natural":"tree"},"geometry":{"type":"Point","coordinates":[151.2850097,-33.887351]}},{"type":"Feature","properties":{"@id":"node/8841955535","natural":"tree"},"geometry":{"type":"Point","coordinates":[151.2850841,-33.8873588]}},{"type":"Feature","properties":{"@id":"node/8841955536","golf":"pin"},"geometry":{"type":"Point","coordinates":[151.2849009,-33.8891114]}},{"type":"Feature","properties":{"@id":"node/8841955537","golf":"pin"},"geometry":{"type":"Point","coordinates":[151.2846487,-33.8886887]}},{"type":"Feature","properties":{"@id":"node/8841955614","golf":"pin"},"geometry":{"type":"Point","coordinates":[151.2849884,-33.8882889]}},{"type":"Feature","properties":{"@id":"node/8841966658","golf":"pin"},"geometry":{"type":"Point","coordinates":[151.2850364,-33.8874964]}},{"type":"Feature","properties":{"@id":"node/8841966706","golf":"pin"},"geometry":{"type":"Point","coordinates":[151.2847288,-33.8850712]}},{"type":"Feature","properties":{"@id":"node/8841966733","golf":"pin"},"geometry":{"type":"Point","coordinates":[151.2844577,-33.8857247]}},{"type":"Feature","properties":{"@id":"node/8841966734","golf":"pin"},"geometry":{"type":"Point","coordinates":[151.2846425,-33.8874517]}},{"type":"Feature","properties":{"@id":"node/8841966735","golf":"pin"},"geometry":{"type":"Point","coordinates":[151.2838572,-33.8876125]}},{"type":"Feature","properties":{"@id":"node/8841966780","golf":"pin"},"geometry":{"type":"Point","coordinates":[151.2845603,-33.8880287]}},{"type":"Feature","properties":{"@id":"node/8841966844","natural":"tree"},"geometry":{"type":"Point","coordinates":[151.2847884,-33.8863004]}},{"type":"Feature","properties":{"@id":"node/8841966845","natural":"tree"},"geometry":{"type":"Point","coordinates":[151.2843536,-33.8850851]}},{"type":"Feature","properties":{"@id":"node/8841966861","natural":"tree"},"geometry":{"type":"Point","coordinates":[151.283964,-33.8885533]}},{"type":"Feature","properties":{"@id":"node/8841966862","natural":"tree"},"geometry":{"type":"Point","coordinates":[151.2836233,-33.8884775]}},{"type":"Feature","properties":{"@id":"node/8841966863","natural":"tree"},"geometry":{"type":"Point","coordinates":[151.2837344,-33.8885049]}},{"type":"Feature","properties":{"@id":"node/8841966864","natural":"tree"},"geometry":{"type":"Point","coordinates":[151.2837683,-33.8884667]}},{"type":"Feature","properties":{"@id":"node/8841966865","natural":"tree"},"geometry":{"type":"Point","coordinates":[151.2837474,-33.8884163]}},{"type":"Feature","properties":{"@id":"node/8841966866","natural":"tree"},"geometry":{"type":"Point","coordinates":[151.2837188,-33.8883644]}},{"type":"Feature","properties":{"@id":"node/8841966867","natural":"tree"},"geometry":{"type":"Point","coordinates":[151.2836815,-33.8883399]}},{"type":"Feature","properties":{"@id":"way/175817978","leisure":"golf_course","name":"Bondi Golf Course"},"geometry":{"type":"Polygon","coordinates":[[[151.2852388,-33.8895801],[151.2853079,-33.8896169],[151.2853284,-33.8895626],[151.2854101,-33.8891961],[151.2855573,-33.8882562],[151.2851608,-33.8879983],[151.2851935,-33.8879542],[151.2853652,-33.8879746],[151.2853325,-33.8878558],[151.2854101,-33.8877506],[151.2854551,-33.8876081],[151.2852752,-33.8875165],[151.2851281,-33.8874011],[151.2852957,-33.88734],[151.2855328,-33.8874961],[151.2856513,-33.8874215],[151.285635,-33.8873095],[151.2854551,-33.8872043],[151.2853897,-33.8870889],[151.2854224,-33.8869396],[151.2854347,-33.8867462],[151.2854674,-33.8864476],[151.2854366,-33.886313],[151.2854469,-33.8862067],[151.2855818,-33.886054],[151.2856677,-33.8859522],[151.28559,-33.8858131],[151.2854354,-33.8857411],[151.2853775,-33.8856739],[151.2852735,-33.8855395],[151.2851348,-33.8853548],[151.2848758,-33.8848651],[151.2836001,-33.8847957],[151.2840451,-33.8852708],[151.2841173,-33.8854123],[151.2842705,-33.8857579],[151.2842845,-33.8858027],[151.2843601,-33.8860434],[151.2844237,-33.8863865],[151.2844613,-33.8867056],[151.2843572,-33.8869432],[151.2840928,-33.8871783],[151.2833803,-33.887819],[151.2833491,-33.8879034],[151.2833396,-33.8879699],[151.2833326,-33.8880181],[151.2833398,-33.8880685],[151.2835768,-33.8885844],[151.28373,-33.8886156],[151.2840364,-33.8888267],[151.2843833,-33.889081],[151.2852388,-33.8895801]]]}},{"type":"Feature","properties":{"@id":"way/954624831","golf":"bunker","natural":"sand"},"geometry":{"type":"Polygon","coordinates":[[[151.2847529,-33.888923],[151.2847423,-33.8889241],[151.2847352,-33.8889215],[151.2847277,-33.8889131],[151.2847224,-33.8889098],[151.2847167,-33.8889094],[151.2847122,-33.8889135],[151.2847105,-33.8889245],[151.2847149,-33.8889395],[151.2847233,-33.888952],[151.2847326,-33.8889616],[151.2847414,-33.8889645],[151.2847551,-33.8889623],[151.2847697,-33.8889513],[151.2847746,-33.888945],[151.284772,-33.8889366],[151.284768,-33.8889278],[151.2847622,-33.8889226],[151.2847569,-33.8889201],[151.2847529,-33.888923]]]}},{"type":"Feature","properties":{"@id":"way/954624832","golf":"bunker","natural":"sand"},"geometry":{"type":"Polygon","coordinates":[[[151.2846773,-33.8890343],[151.2846574,-33.8890321],[151.2846538,-33.8890383],[151.2846529,-33.8890512],[151.2846569,-33.88906],[151.284668,-33.889067],[151.284683,-33.8890721],[151.2846928,-33.8890732],[151.284699,-33.889071],[151.2847025,-33.8890651],[151.2847012,-33.8890567],[151.2846959,-33.8890479],[151.2846906,-33.8890398],[151.2846866,-33.8890361],[151.2846773,-33.8890343]]]}},{"type":"Feature","properties":{"@id":"way/954624833","golf":"bunker","natural":"sand"},"geometry":{"type":"Polygon","coordinates":[[[151.2846075,-33.8885431],[151.2845937,-33.8885356],[151.2845827,-33.8885356],[151.2845692,-33.8885389],[151.2845609,-33.888547],[151.2845612,-33.8885581],[151.2845652,-33.8885678],[151.2845726,-33.8885779],[151.2845833,-33.8885887],[151.2846004,-33.8885951],[151.2846172,-33.8885979],[151.2846316,-33.8885973],[151.2846417,-33.8885932],[151.2846464,-33.8885854],[151.2846467,-33.8885742],[151.2846443,-33.8885651],[151.2846403,-33.8885589],[151.284637,-33.888552],[151.2846309,-33.8885475],[151.2846075,-33.8885431]]]}},{"type":"Feature","properties":{"@id":"way/954624834","golf":"green"},"geometry":{"type":"Polygon","coordinates":[[[151.2846761,-33.8886173],[151.2845996,-33.8886207],[151.2845792,-33.888627],[151.2845663,-33.8886396],[151.2845651,-33.8886609],[151.2845745,-33.8886856],[151.2846118,-33.8887161],[151.2846755,-33.8887496],[151.2847134,-33.8887563],[151.2847444,-33.8887563],[151.284777,-33.8887452],[151.2847998,-33.8887273],[151.2848086,-33.8887021],[151.284808,-33.8886841],[151.2847951,-33.8886623],[151.2847765,-33.888642],[151.2847479,-33.8886245],[151.2847193,-33.8886187],[151.2846761,-33.8886173]]]}},{"type":"Feature","properties":{"@id":"way/954624835","golf":"green"},"geometry":{"type":"Polygon","coordinates":[[[151.2848625,-33.8889737],[151.2848136,-33.8889781],[151.2847646,-33.8889943],[151.2847452,-33.8890166],[151.2847438,-33.8890438],[151.2847499,-33.8890655],[151.2847854,-33.8891078],[151.2848377,-33.8891373],[151.2848846,-33.8891535],[151.2849571,-33.8891451],[151.2849792,-33.8891295],[151.2849872,-33.8891051],[151.2849919,-33.8890694],[151.2849832,-33.8890444],[151.2849658,-33.8890199],[151.2849389,-33.8890004],[151.2849048,-33.8889848],[151.2848625,-33.8889737]]]}},{"type":"Feature","properties":{"@id":"way/954624836","golf":"bunker","natural":"sand"},"geometry":{"type":"Polygon","coordinates":[[[151.284936,-33.888404],[151.2849254,-33.8884018],[151.2849161,-33.8884032],[151.2849024,-33.8884084],[151.2848953,-33.8884187],[151.2848891,-33.8884374],[151.2848913,-33.888448],[151.2848993,-33.8884557],[151.2849148,-33.8884605],[151.2849289,-33.8884565],[151.2849422,-33.888448],[151.2849489,-33.8884359],[151.2849546,-33.8884223],[151.2849537,-33.8884165],[151.2849502,-33.8884113],[151.284936,-33.888404]]]}},{"type":"Feature","properties":{"@id":"way/954624837","golf":"bunker","natural":"sand"},"geometry":{"type":"Polygon","coordinates":[[[151.2851051,-33.8882666],[151.2850866,-33.8882688],[151.2850759,-33.8882761],[151.2850711,-33.8882879],[151.2850711,-33.8883025],[151.2850795,-33.8883169],[151.2850928,-33.8883227],[151.2851074,-33.8883216],[151.285118,-33.8883132],[151.2851286,-33.8882978],[151.2851295,-33.888286],[151.2851277,-33.8882754],[151.2851206,-33.8882695],[151.2851051,-33.8882666]]]}},{"type":"Feature","properties":{"@id":"way/954624838","golf":"green"},"geometry":{"type":"Polygon","coordinates":[[[151.2849532,-33.8881588],[151.2849166,-33.8881689],[151.284884,-33.888195],[151.2848627,-33.8882322],[151.2848627,-33.888276],[151.2848698,-33.8883081],[151.2848932,-33.8883359],[151.2849277,-33.8883469],[151.2849725,-33.8883478],[151.2850131,-33.8883359],[151.2850538,-33.8882954],[151.285068,-33.8882524],[151.285067,-33.8882153],[151.2850477,-33.8881866],[151.2850162,-33.8881672],[151.2849969,-33.8881621],[151.2849532,-33.8881588]]]}},{"type":"Feature","properties":{"@id":"way/954624839","golf":"green"},"geometry":{"type":"Polygon","coordinates":[[[151.2845841,-33.8879764],[151.2845537,-33.8879759],[151.2845286,-33.887987],[151.2845158,-33.888005],[151.2845047,-33.8880316],[151.2845012,-33.8880583],[151.2845076,-33.8880781],[151.284528,-33.8880966],[151.2845432,-33.8881033],[151.28457,-33.8881038],[151.2845981,-33.8880966],[151.2846237,-33.8880772],[151.2846424,-33.8880549],[151.2846436,-33.8880336],[151.2846389,-33.8880064],[151.2846267,-33.8879914],[151.2846092,-33.8879827],[151.2845841,-33.8879764]]]}},{"type":"Feature","properties":{"@id":"way/954624840","golf":"bunker","natural":"sand"},"geometry":{"type":"Polygon","coordinates":[[[151.2844562,-33.8880219],[151.2844422,-33.8880263],[151.2844352,-33.8880374],[151.2844334,-33.8880525],[151.2844334,-33.8880631],[151.2844387,-33.888068],[151.2844469,-33.8880685],[151.2844597,-33.8880651],[151.2844731,-33.8880554],[151.2844796,-33.8880471],[151.2844796,-33.8880355],[151.2844761,-33.8880302],[151.2844714,-33.8880258],[151.2844562,-33.8880219]]]}},{"type":"Feature","properties":{"@id":"way/954624841","golf":"green"},"geometry":{"type":"Polygon","coordinates":[[[151.2838936,-33.8875504],[151.2838655,-33.8875526],[151.283836,-33.8875693],[151.2838125,-33.8875944],[151.2838025,-33.8876211],[151.2838025,-33.8876434],[151.2838185,-33.8876579],[151.2838393,-33.8876751],[151.2838628,-33.8877002],[151.283889,-33.8877208],[151.2839238,-33.8877235],[151.2839594,-33.8877163],[151.2839808,-33.8877002],[151.2839936,-33.8876773],[151.2839976,-33.8876428],[151.2839949,-33.8876122],[151.2839768,-33.8875833],[151.283962,-33.8875666],[151.2839379,-33.887551],[151.2839158,-33.8875499],[151.2838936,-33.8875504]]]}},{"type":"Feature","properties":{"@id":"way/954624842","golf":"bunker","natural":"sand"},"geometry":{"type":"Polygon","coordinates":[[[151.2838641,-33.8874959],[151.2838507,-33.8874959],[151.2838346,-33.8875048],[151.2838306,-33.8875142],[151.2838367,-33.8875248],[151.2838521,-33.8875287],[151.2838668,-33.8875276],[151.2838769,-33.8875204],[151.2838822,-33.8875092],[151.2838782,-33.8875025],[151.2838641,-33.8874959]]]}},{"type":"Feature","properties":{"@id":"way/954624843","golf":"bunker","natural":"sand"},"geometry":{"type":"Polygon","coordinates":[[[151.2837696,-33.8875655],[151.2837575,-33.887571],[151.2837468,-33.8875827],[151.2837448,-33.8875977],[151.2837555,-33.8876072],[151.2837709,-33.8876066],[151.283787,-33.8876022],[151.2837957,-33.8875911],[151.2837991,-33.8875794],[151.2837971,-33.8875705],[151.283789,-33.8875649],[151.2837696,-33.8875655]]]}},{"type":"Feature","properties":{"@id":"way/954624844","golf":"bunker","natural":"sand"},"geometry":{"type":"Polygon","coordinates":[[[151.2838051,-33.8876985],[151.283787,-33.8877013],[151.283779,-33.8877074],[151.2837736,-33.8877185],[151.2837756,-33.8877319],[151.283787,-33.8877447],[151.2838011,-33.8877469],[151.2838139,-33.8877458],[151.2838273,-33.8877363],[151.283834,-33.8877235],[151.2838353,-33.8877141],[151.283832,-33.8877046],[151.2838239,-33.887699],[151.2838051,-33.8876985]]]}},{"type":"Feature","properties":{"@id":"way/954624845","golf":"bunker","natural":"sand"},"geometry":{"type":"Polygon","coordinates":[[[151.2840351,-33.8877514],[151.2840197,-33.8877491],[151.284011,-33.8877508],[151.284005,-33.8877592],[151.2840056,-33.887772],[151.284011,-33.8877859],[151.2840204,-33.8877903],[151.2840365,-33.8877881],[151.2840465,-33.8877831],[151.2840539,-33.8877748],[151.2840559,-33.8877642],[151.2840532,-33.8877592],[151.2840492,-33.8877553],[151.2840351,-33.8877514]]]}},{"type":"Feature","properties":{"@id":"way/954624846","golf":"bunker","natural":"sand"},"geometry":{"type":"Polygon","coordinates":[[[151.2840693,-33.8876807],[151.2840499,-33.8876801],[151.2840439,-33.8876829],[151.2840405,-33.8876952],[151.2840439,-33.8877046],[151.2840532,-33.8877141],[151.2840653,-33.887718],[151.2840794,-33.8877157],[151.2840908,-33.8877091],[151.2840941,-33.887699],[151.2840935,-33.887689],[151.2840901,-33.8876829],[151.2840821,-33.8876807],[151.2840693,-33.8876807]]]}},{"type":"Feature","properties":{"@id":"way/954624847","golf":"bunker","natural":"sand"},"geometry":{"type":"Polygon","coordinates":[[[151.2849412,-33.8876145],[151.2849243,-33.8876169],[151.2849167,-33.8876213],[151.2849167,-33.8876334],[151.2849196,-33.8876489],[151.2849278,-33.8876552],[151.2849395,-33.8876562],[151.2849529,-33.8876557],[151.2849611,-33.887646],[151.284964,-33.8876349],[151.2849634,-33.8876252],[151.2849582,-33.8876189],[151.2849529,-33.887615],[151.2849412,-33.8876145]]]}},{"type":"Feature","properties":{"@id":"way/954624848","golf":"bunker","natural":"sand"},"geometry":{"type":"Polygon","coordinates":[[[151.2851286,-33.8876683],[151.2851181,-33.8876683],[151.2851111,-33.8876717],[151.2851053,-33.8876838],[151.2851035,-33.8877042],[151.2851123,-33.8877105],[151.2851269,-33.8877119],[151.2851566,-33.8877037],[151.2851636,-33.8876984],[151.2851642,-33.8876916],[151.2851578,-33.8876833],[151.2851444,-33.8876717],[151.2851286,-33.8876683]]]}},{"type":"Feature","properties":{"@id":"way/954624849","golf":"green"},"geometry":{"type":"Polygon","coordinates":[[[151.28504,-33.8874493],[151.2850038,-33.8874487],[151.2849592,-33.8874753],[151.2849338,-33.8875116],[151.2849389,-33.887547],[151.2849582,-33.8875799],[151.2849968,-33.8876086],[151.2850344,-33.8876154],[151.2850609,-33.8876162],[151.2850903,-33.8876086],[151.2851127,-33.8875884],[151.2851269,-33.8875513],[151.2851269,-33.8875183],[151.2851168,-33.8874947],[151.2850924,-33.8874618],[151.285069,-33.88745],[151.28504,-33.8874493]]]}},{"type":"Feature","properties":{"@id":"way/954624850","golf":"bunker","natural":"sand"},"geometry":{"type":"Polygon","coordinates":[[[151.2848012,-33.8872989],[151.2847959,-33.8872901],[151.2847817,-33.8872849],[151.2847684,-33.8872834],[151.2847587,-33.8872923],[151.2847525,-33.8873106],[151.2847569,-33.8873297],[151.2847622,-33.8873393],[151.2847755,-33.8873393],[151.2847923,-33.8873371],[151.2848056,-33.8873275],[151.2848056,-33.8873158],[151.2848012,-33.8872989]]]}},{"type":"Feature","properties":{"@id":"way/954624851","golf":"green"},"geometry":{"type":"Polygon","coordinates":[[[151.2846569,-33.8873092],[151.2846171,-33.8873216],[151.2845959,-33.8873466],[151.2845808,-33.8873988],[151.2845853,-33.8874399],[151.2846083,-33.8874722],[151.2846614,-33.8874891],[151.2846985,-33.8874869],[151.284741,-33.8874715],[151.284756,-33.8874384],[151.2847587,-33.8874076],[151.2847551,-33.8873804],[151.2847357,-33.8873473],[151.2847136,-33.8873246],[151.284687,-33.8873106],[151.2846569,-33.8873092]]]}},{"type":"Feature","properties":{"@id":"way/954624852","golf":"green"},"geometry":{"type":"Polygon","coordinates":[[[151.2844374,-33.8856513],[151.284417,-33.8856532],[151.2843819,-33.8856615],[151.2843668,-33.8856794],[151.2843627,-33.8857046],[151.2843633,-33.8857279],[151.2843749,-33.8857535],[151.2843989,-33.8857744],[151.2844339,-33.8857812],[151.2844537,-33.8857802],[151.2844736,-33.8857739],[151.2844905,-33.8857618],[151.2845028,-33.8857342],[151.2845039,-33.8857099],[151.2844999,-33.8856906],[151.2844882,-33.8856702],[151.2844654,-33.8856532],[151.2844374,-33.8856513]]]}},{"type":"Feature","properties":{"@id":"way/954624853","golf":"bunker","natural":"sand"},"geometry":{"type":"Polygon","coordinates":[[[151.2843218,-33.885646],[151.2843142,-33.8856363],[151.2843049,-33.8856329],[151.2842915,-33.8856339],[151.2842839,-33.8856397],[151.2842821,-33.8856528],[151.2842897,-33.8856721],[151.2842996,-33.8856823],[151.2843107,-33.8856843],[151.2843206,-33.8856823],[151.2843265,-33.885678],[151.28433,-33.8856692],[151.28433,-33.8856591],[151.2843218,-33.885646]]]}},{"type":"Feature","properties":{"@id":"way/954624854","golf":"bunker","natural":"sand"},"geometry":{"type":"Polygon","coordinates":[[[151.2843598,-33.8855665],[151.2843457,-33.8855641],[151.2843277,-33.885567],[151.2843212,-33.8855776],[151.2843236,-33.8855859],[151.2843376,-33.8855961],[151.2843533,-33.8856038],[151.2843697,-33.8856053],[151.2843784,-33.8856004],[151.2843825,-33.8855898],[151.2843814,-33.8855815],[151.2843773,-33.8855747],[151.2843598,-33.8855665]]]}},{"type":"Feature","properties":{"@id":"way/954624855","golf":"bunker","natural":"sand"},"geometry":{"type":"Polygon","coordinates":[[[151.2844224,-33.8854569],[151.2844016,-33.8854636],[151.2843962,-33.8854719],[151.2844024,-33.8854828],[151.2844151,-33.8854956],[151.2844286,-33.8854997],[151.2844444,-33.8854994],[151.2844555,-33.8854898],[151.2844628,-33.8854764],[151.2844613,-33.8854671],[151.2844559,-33.8854607],[151.2844459,-33.8854556],[151.2844359,-33.885454],[151.2844224,-33.8854569]]]}},{"type":"Feature","properties":{"@id":"way/954624856","golf":"bunker","natural":"sand"},"geometry":{"type":"Polygon","coordinates":[[[151.2846293,-33.8851771],[151.2846143,-33.8851735],[151.2846046,-33.8851744],[151.284599,-33.8851786],[151.2845978,-33.8851849],[151.2846001,-33.8851912],[151.2846082,-33.885199],[151.2846173,-33.8852047],[151.284626,-33.8852064],[151.2846346,-33.8852066],[151.2846422,-33.8852028],[151.2846473,-33.8851984],[151.2846483,-33.8851917],[151.284646,-33.8851866],[151.2846293,-33.8851771]]]}},{"type":"Feature","properties":{"@id":"way/954624857","golf":"bunker","natural":"sand"},"geometry":{"type":"Polygon","coordinates":[[[151.2849035,-33.8853114],[151.2848862,-33.8853169],[151.2848769,-33.8853236],[151.2848715,-33.8853341],[151.2848727,-33.8853463],[151.28488,-33.8853556],[151.2848927,-33.8853604],[151.2849124,-33.8853626],[151.2849247,-33.8853584],[151.2849339,-33.8853479],[151.2849347,-33.8853345],[151.2849316,-33.8853217],[151.2849258,-33.885315],[151.2849162,-33.8853095],[151.2849035,-33.8853114]]]}},{"type":"Feature","properties":{"@id":"way/954624858","golf":"green"},"geometry":{"type":"Polygon","coordinates":[[[151.2847197,-33.8849933],[151.2846781,-33.8849953],[151.2846442,-33.8850093],[151.2846134,-33.8850343],[151.284598,-33.8850662],[151.2845918,-33.8851014],[151.2846188,-33.8851327],[151.2846534,-33.8851513],[151.2847012,-33.8851602],[151.2847844,-33.885141],[151.2848083,-33.8851008],[151.2848129,-33.885063],[151.2848075,-33.8850343],[151.2847952,-33.8850157],[151.2847705,-33.8849991],[151.2847197,-33.8849933]]]}},{"type":"Feature","properties":{"@id":"way/955319928","golf":"tee"},"geometry":{"type":"Polygon","coordinates":[[[151.2835985,-33.8878472],[151.2836365,-33.8878175],[151.2835799,-33.8877671],[151.2835427,-33.8877943],[151.2835985,-33.8878472]]]}},{"type":"Feature","properties":{"@id":"way/955319929","golf":"fairway"},"geometry":{"type":"Polygon","coordinates":[[[151.2845642,-33.8883958],[151.2844556,-33.888293],[151.2841906,-33.8881186],[151.2840925,-33.8880662],[151.2840213,-33.8880846],[151.2840108,-33.8881535],[151.2840948,-33.8882446],[151.2841859,-33.888356],[151.2843529,-33.8885043],[151.2844358,-33.888546],[151.2844743,-33.888545],[151.2845478,-33.8885314],[151.2845969,-33.888515],[151.2846167,-33.888481],[151.2846085,-33.8884462],[151.2845642,-33.8883958]]]}},{"type":"Feature","properties":{"@id":"way/955319930","golf":"hole","ref":"1","par":"3"},"geometry":{"type":"LineString","coordinates":[[151.283587,-33.8878049],[151.2842476,-33.8882622],[151.2846487,-33.8886887]]}},{"type":"Feature","properties":{"@id":"way/955319931","golf":"tee"},"geometry":{"type":"Polygon","coordinates":[[[151.2838281,-33.8885355],[151.2837878,-33.8885873],[151.2839057,-33.8886552],[151.2839466,-33.888598],[151.2838281,-33.8885355]]]}},{"type":"Feature","properties":{"@id":"way/955319932","golf":"fairway"},"geometry":{"type":"Polygon","coordinates":[[[151.2846712,-33.8889075],[151.2845309,-33.8888375],[151.284472,-33.8887995],[151.2843948,-33.8887751],[151.2843348,-33.8887869],[151.2843267,-33.8888071],[151.2843297,-33.8888274],[151.284349,-33.8888687],[151.2844202,-33.8889143],[151.2846143,-33.8890045],[151.2846509,-33.8890062],[151.2846743,-33.8889953],[151.2846936,-33.8889674],[151.2846986,-33.8889522],[151.2846712,-33.8889075]]]}},{"type":"Feature","properties":{"@id":"way/955319933","golf":"hole","ref":"2","par":"3"},"geometry":{"type":"LineString","coordinates":[[151.283863,-33.8885945],[151.2846265,-33.888926],[151.2849009,-33.8891114]]}},{"type":"Feature","properties":{"@id":"way/955319934","golf":"tee"},"geometry":{"type":"Polygon","coordinates":[[[151.2851499,-33.8892025],[151.2851844,-33.8893245],[151.2852844,-33.889301],[151.2852419,-33.8891842],[151.2851499,-33.8892025]]]}},{"type":"Feature","properties":{"@id":"way/955319935","natural":"scrub"},"geometry":{"type":"Polygon","coordinates":[[[151.2848556,-33.8884415],[151.2848449,-33.888437],[151.2848302,-33.8884398],[151.2848234,-33.8884526],[151.2848295,-33.8884854],[151.2848395,-33.8884966],[151.2848503,-33.8885038],[151.2848717,-33.8885166],[151.2848865,-33.8885361],[151.2848932,-33.88855],[151.2848878,-33.8885623],[151.2848871,-33.8885767],[151.2849053,-33.888584],[151.2849213,-33.8885862],[151.2849307,-33.8885801],[151.2849374,-33.8885528],[151.2849441,-33.888525],[151.2849475,-33.8885066],[151.2849314,-33.8884788],[151.2849039,-33.8884654],[151.2848865,-33.8884571],[151.2848556,-33.8884415]]]}},{"type":"Feature","properties":{"@id":"way/955319936","natural":"scrub"},"geometry":{"type":"Polygon","coordinates":[[[151.2847852,-33.8883981],[151.2847678,-33.8883903],[151.2847557,-33.8883897],[151.2847544,-33.8883969],[151.2847638,-33.8884109],[151.2847919,-33.8884337],[151.284806,-33.8884381],[151.284812,-33.8884303],[151.2848107,-33.8884192],[151.2848033,-33.8884109],[151.2847852,-33.8883981]]]}},{"type":"Feature","properties":{"@id":"way/955319937","golf":"fairway"},"geometry":{"type":"Polygon","coordinates":[[[151.284968,-33.8884043],[151.2849822,-33.8885226],[151.2850105,-33.8886225],[151.2850618,-33.8886989],[151.285114,-33.8886981],[151.2851618,-33.8886856],[151.2851839,-33.8886541],[151.2851883,-33.8886122],[151.2851653,-33.8885593],[151.2851211,-33.8884535],[151.2851184,-33.8884227],[151.2851016,-33.8883992],[151.2850839,-33.8883801],[151.2850565,-33.8883661],[151.2850034,-33.8883705],[151.2849742,-33.8883896],[151.284968,-33.8884043]]]}},{"type":"Feature","properties":{"@id":"way/955319938","golf":"hole","ref":"3","par":"3"},"geometry":{"type":"LineString","coordinates":[[151.285214,-33.8892527],[151.2851255,-33.8886093],[151.2849884,-33.8882889]]}},{"type":"Feature","properties":{"@id":"way/955319939","golf":"tee"},"geometry":{"type":"Polygon","coordinates":[[[151.2853563,-33.8886755],[151.2853825,-33.8887874],[151.2854449,-33.8887759],[151.2854172,-33.8886691],[151.2853563,-33.8886755]]]}},{"type":"Feature","properties":{"@id":"way/955319940","golf":"fairway"},"geometry":{"type":"Polygon","coordinates":[[[151.2852082,-33.8883511],[151.2852479,-33.8884675],[151.2852824,-33.8884962],[151.2853312,-33.8885063],[151.2853729,-33.8884954],[151.2854115,-33.8884743],[151.2854156,-33.8884414],[151.2853759,-33.8883401],[151.2852306,-33.8881604],[151.2851473,-33.888028],[151.285129,-33.8879537],[151.2851147,-33.8878322],[151.2851147,-33.8877698],[151.2850893,-33.8877318],[151.2850416,-33.8877208],[151.285004,-33.8877259],[151.2849755,-33.8877487],[151.2849613,-33.8878272],[151.285004,-33.8879554],[151.285071,-33.8881132],[151.2851351,-33.8882178],[151.2852082,-33.8883511]]]}},{"type":"Feature","properties":{"@id":"way/955319941","golf":"hole","ref":"4","par":"3"},"geometry":{"type":"LineString","coordinates":[[151.2854022,-33.8887242],[151.28508,-33.8879758],[151.2850364,-33.8874964]]}},{"type":"Feature","properties":{"@id":"way/955319942","golf":"tee"},"geometry":{"type":"Polygon","coordinates":[[[151.2853297,-33.887485],[151.2853438,-33.8875476],[151.2854109,-33.8875432],[151.2853869,-33.8874758],[151.2853297,-33.887485]]]}},{"type":"Feature","properties":{"@id":"way/955319943","golf":"path","name":"Sullivan Path"},"geometry":{"type":"LineString","coordinates":[[151.2851774,-33.8873532],[151.2852371,-33.8874478],[151.2852565,-33.8874673],[151.2852666,-33.8874701],[151.2853665,-33.8874378]]}},{"type":"Feature","properties":{"@id":"way/955319944","golf":"fairway"},"geometry":{"type":"Polygon","coordinates":[[[151.284695,-33.8852741],[151.2847392,-33.8852964],[151.2847821,-33.8853576],[151.2848063,-33.8855035],[151.284809,-33.8856972],[151.2848143,-33.8857562],[151.2848693,-33.8857985],[151.2849377,-33.8857974],[151.2849913,-33.8857751],[151.2850034,-33.8857206],[151.2850007,-33.8856326],[151.284939,-33.8854534],[151.2849124,-33.8853626],[151.2848927,-33.8853604],[151.28488,-33.8853556],[151.2848727,-33.8853463],[151.2848715,-33.8853341],[151.2848769,-33.8853236],[151.2848862,-33.8853169],[151.2849035,-33.8853114],[151.2849162,-33.8853095],[151.2849082,-33.8852842],[151.2848934,-33.8852574],[151.2848318,-33.8852018],[151.2847915,-33.8851784],[151.2847218,-33.8851851],[151.2846628,-33.8852218],[151.2846534,-33.8852385],[151.2846601,-33.8852608],[151.284695,-33.8852741]]]}},{"type":"Feature","properties":{"@id":"way/955319945","golf":"fairway"},"geometry":{"type":"Polygon","coordinates":[[[151.2850401,-33.8865679],[151.2851245,-33.8868373],[151.2851688,-33.8868975],[151.2852198,-33.8869019],[151.2852707,-33.8868596],[151.2852962,-33.8867694],[151.2852935,-33.886677],[151.2852198,-33.8862584],[151.2851219,-33.8860881],[151.2850655,-33.8860191],[151.2850387,-33.8859456],[151.2850025,-33.8859133],[151.2849341,-33.8859155],[151.2848845,-33.8859478],[151.2848402,-33.8860268],[151.2848496,-33.8860903],[151.2850401,-33.8865679]]]}},{"type":"Feature","properties":{"@id":"way/955319946","golf":"hole","ref":"5","par":"4"},"geometry":{"type":"LineString","coordinates":[[151.2853671,-33.88751],[151.2850836,-33.8862337],[151.2848526,-33.8854332],[151.2847288,-33.8850712]]}},{"type":"Feature","properties":{"@id":"way/955319947","golf":"tee"},"geometry":{"type":"Polygon","coordinates":[[[151.2842944,-33.8849087],[151.2842994,-33.8850065],[151.2844062,-33.8850032],[151.2844001,-33.8849053],[151.2842944,-33.8849087]]]}},{"type":"Feature","properties":{"@id":"way/955319948","golf":"fairway"},"geometry":{"type":"Polygon","coordinates":[[[151.2843753,-33.8851974],[151.2843064,-33.885211],[151.2842573,-33.8852701],[151.2842398,-33.8853215],[151.284248,-33.8853748],[151.2842783,-33.8854494],[151.2842877,-33.8855105],[151.2842966,-33.8855945],[151.2843174,-33.885629],[151.2843359,-33.8856488],[151.284369,-33.8856495],[151.2844052,-33.8856463],[151.284423,-33.8856303],[151.2844322,-33.8855868],[151.2844283,-33.8855389],[151.2844151,-33.8854956],[151.2844024,-33.8854828],[151.2843962,-33.8854719],[151.2844016,-33.8854636],[151.2844224,-33.8854569],[151.284416,-33.8853899],[151.2844191,-33.8852882],[151.284416,-33.885246],[151.2843975,-33.8852102],[151.2843753,-33.8851974]]]}},{"type":"Feature","properties":{"@id":"way/955319949","golf":"hole","ref":"6","par":"3"},"geometry":{"type":"LineString","coordinates":[[151.2843487,-33.8849463],[151.2843189,-33.885338],[151.2844577,-33.8857247]]}},{"type":"Feature","properties":{"@id":"way/955319950","golf":"tee"},"geometry":{"type":"Polygon","coordinates":[[[151.2844815,-33.8860569],[151.284485,-33.8861319],[151.2845562,-33.8861275],[151.284551,-33.8860548],[151.2844815,-33.8860569]]]}},{"type":"Feature","properties":{"@id":"way/955319951","golf":"fairway"},"geometry":{"type":"Polygon","coordinates":[[[151.284528,-33.8863954],[151.2845486,-33.886634],[151.2845853,-33.8869183],[151.2846048,-33.8870866],[151.284607,-33.8872178],[151.2846093,-33.8872425],[151.2846574,-33.8872692],[151.284717,-33.8872673],[151.2847525,-33.8872521],[151.2847708,-33.8872017],[151.2847663,-33.8870904],[151.2847296,-33.8869402],[151.2847124,-33.8866559],[151.2846941,-33.8863887],[151.2846712,-33.8863402],[151.2846494,-33.8863183],[151.2846116,-33.8863126],[151.2845727,-33.8863136],[151.2845395,-33.8863336],[151.2845246,-33.8863554],[151.284528,-33.8863954]]]}},{"type":"Feature","properties":{"@id":"way/955319952","golf":"hole","ref":"7","par":"3"},"geometry":{"type":"LineString","coordinates":[[151.2845249,-33.8860884],[151.2846372,-33.8866038],[151.2846425,-33.8874517]]}},{"type":"Feature","properties":{"@id":"way/955319953","golf":"tee"},"geometry":{"type":"Polygon","coordinates":[[[151.2843116,-33.8872989],[151.2843774,-33.887249],[151.284302,-33.8871805],[151.2842112,-33.8872078],[151.2843116,-33.8872989]]]}},{"type":"Feature","properties":{"@id":"way/955319954","golf":"fairway"},"geometry":{"type":"Polygon","coordinates":[[[151.2844954,-33.8875548],[151.2844651,-33.8874645],[151.2844137,-33.8874532],[151.2843654,-33.8874544],[151.284317,-33.8874908],[151.2843216,-33.8876012],[151.2844621,-33.8878998],[151.2844969,-33.8879425],[151.2845452,-33.887945],[151.2845785,-33.8879299],[151.2845845,-33.8878785],[151.2845694,-33.8877907],[151.2844954,-33.8875548]]]}},{"type":"Feature","properties":{"@id":"way/955319955","golf":"hole","ref":"8","par":"3"},"geometry":{"type":"LineString","coordinates":[[151.284299,-33.8872356],[151.2844436,-33.8876374],[151.2845603,-33.8880287]]}},{"type":"Feature","properties":{"@id":"way/955319956","golf":"tee"},"geometry":{"type":"Polygon","coordinates":[[[151.2846453,-33.8884371],[151.2847639,-33.8885343],[151.284813,-33.8884829],[151.2847065,-33.8883938],[151.2846453,-33.8884371]]]}},{"type":"Feature","properties":{"@id":"way/955319957","golf":"fairway"},"geometry":{"type":"Polygon","coordinates":[[[151.284096,-33.8878227],[151.2840683,-33.8877943],[151.2840465,-33.8877831],[151.2840365,-33.8877881],[151.2840204,-33.8877903],[151.284011,-33.8877859],[151.2839815,-33.8877998],[151.2839539,-33.8878293],[151.2839526,-33.8878719],[151.283996,-33.887933],[151.2841499,-33.8880521],[151.2843025,-33.8881384],[151.2844762,-33.8882541],[151.2845394,-33.8883262],[151.2845841,-33.8883448],[151.2846183,-33.888324],[151.2846222,-33.8882738],[151.2845801,-33.8882006],[151.2844736,-33.8881078],[151.2842131,-33.8879079],[151.284096,-33.8878227]]]}},{"type":"Feature","properties":{"@id":"way/955319958","golf":"hole","ref":"9","par":"3"},"geometry":{"type":"LineString","coordinates":[[151.2847341,-33.8884649],[151.2843341,-33.8880805],[151.2838572,-33.8876125]]}},{"type":"Feature","properties":{"@id":"way/955319963","natural":"scrub"},"geometry":{"type":"Polygon","coordinates":[[[151.2849758,-33.8867321],[151.2849833,-33.8866656],[151.2849697,-33.8866066],[151.2849577,-33.8865602],[151.2849108,-33.8865451],[151.2848912,-33.8865175],[151.2848594,-33.8864586],[151.2848564,-33.8864209],[151.284867,-33.8863983],[151.2848821,-33.886372],[151.284867,-33.8863544],[151.2848473,-33.886362],[151.2848337,-33.8863971],[151.2848186,-33.886451],[151.2847929,-33.886505],[151.2847823,-33.8865376],[151.2847975,-33.8865602],[151.2848504,-33.8866104],[151.2848791,-33.8866668],[151.2849017,-33.8867258],[151.2849244,-33.8867509],[151.2849471,-33.8867522],[151.2849607,-33.8867484],[151.2849758,-33.8867321]]]}},{"type":"Feature","properties":{"@id":"way/955319964","natural":"scrub"},"geometry":{"type":"Polygon","coordinates":[[[151.2840804,-33.888301],[151.2840623,-33.8882728],[151.284029,-33.8882508],[151.283998,-33.8882439],[151.2839504,-33.8882502],[151.2839278,-33.8882671],[151.2839187,-33.8883048],[151.2839278,-33.888333],[151.2839436,-33.8883669],[151.2839686,-33.8883926],[151.2840041,-33.8884095],[151.284029,-33.8884083],[151.2840517,-33.8883995],[151.2840759,-33.8883713],[151.284087,-33.8883357],[151.2840804,-33.888301]]]}}]}
